BEIDOU-2 IGSO-5         
1 37948U 11073A   26183.72937883 -.00000128  00000+0  00000+0 0  9990
2 37948  47.6496 271.3544 0114527 222.0502 141.5350  1.00270596 53296
LUCH-5A                 
1 37951U 11074B   26197.87327845 -.00000063  00000+0  00000+0 0  9995
2 37951   8.8274  73.3694 0002667  60.5336 282.1722  1.00273389 53344
BEIDOU-2 G5             
1 38091U 12008A   26198.13700318  .00000046  00000+0  00000+0 0  9999
2 38091   3.6466  69.5053 0007310 268.5365  64.8902  1.00270818 52667
BEIDOU-2 M3             
1 38250U 12018A   26197.18445535 -.00000076  00000+0  00000+0 0  9992
2 38250  55.7311 303.8980 0020973 272.2798  87.5098  1.86229676 96482
BEIDOU-2 M4             
1 38251U 12018B   26197.65376425 -.00000078  00000+0  00000+0 0  9998
2 38251  55.6306 303.0936 0012145 272.2408  87.6521  1.86229271 96493
SES-5                   
1 38652U 12036A   26198.26886817  .00000023  00000+0  00000+0 0  9991
2 38652   0.0441 323.0310 0001951 153.7619 280.0585  1.00271325 44754
BEIDOU-2 M6             
1 38775U 12050B   26196.82639704 -.00000044  00000+0  00000+0 0  9998
2 38775  56.5693  61.9476 0012890   1.6971 358.3817  1.86230913 93845
GSAT-10                 
1 38779U 12051B   26198.14176987 -.00000175  00000+0  00000+0 0  9994
2 38779   0.0859 264.4590 0007443 190.3180 334.2173  1.00272744 50395
NAVSTAR 67 (USA 239)    
1 38833U 12053A   26197.73157771  .00000015  00000+0  00000+0 0  9993
2 38833  53.5898 142.3889 0182122  66.2502 295.6136  2.00567949100035
GSAT0103 (GALILEO-FM3)  
1 38857U 12055A   26197.21850469 -.00000026  00000+0  00000+0 0  9991
2 38857  55.8227 100.7486 0003594 314.9576  45.0469  1.70473424 85502
BEIDOU-2 G6             
1 38953U 12059A   26198.15322557 -.00000188  00000+0  00000+0 0  9997
2 38953   4.4954  73.1954 0008719 327.0832  33.8532  1.00273361 50210
LUCH-5B                 
1 38977U 12061A   26198.00761620 -.00000151  00000+0  00000+0 0  9998
2 38977  10.5467  49.5821 0003868 147.5252  84.1803  1.00270300 49908
COSMOS 2485 [GLONASS-M] 
1 39155U 13019A   26197.94263146 -.00000019  00000+0  00000+0 0  9996
2 39155  65.4360  72.6065 0022626 231.0294 128.8442  2.13103147102918
NAVSTAR 68 (USA 242)    
1 39166U 13023A   26198.09793634 -.00000025  00000+0  00000+0 0  9997
2 39166  54.4813 267.7538 0141386  51.1133 310.2153  2.00563335 96486
IRNSS-1A                
1 39199U 13034A   26191.72043649  .00000047  00000+0  00000+0 0  9995
2 39199  35.7704  63.5328 0017567 183.4462 356.2994  1.00281941 47601
NAVSTAR 69 (USA 248)    
1 39533U 14008A   26196.60401446  .00000011  00000+0  00000+0 0  9995
2 39533  53.6578 148.1607 0084090 231.5482 127.6544  2.00561576 90259
ASTRA 5B                
1 39617U 14011B   26198.27259486  .00000127  00000+0  00000+0 0  9990
2 39617   0.0722 304.2673 0001943 179.8966 292.5200  1.00269190 44968
COSMOS 2492 [GLONASS-M] 
1 39620U 14012A   26197.43221882 -.00000064  00000+0  00000+0 0  9992
2 39620  65.2787 312.9423 0010294 317.3344  42.6017  2.13103163 95860
IRNSS-1B                
1 39635U 14017A   26198.19419797  .00000121  00000+0  00000+0 0  9994
2 39635  28.8725 239.8858 0022264 191.8676 348.3411  1.00276401 45090
LUCH-5V                 
1 39727U 14023A   26198.10233428 -.00000281  00000+0  00000+0 0  9997
2 39727   5.2049  69.4291 0002073  85.1084 271.9565  1.00272952 44651
NAVSTAR 70 (USA 251)    
1 39741U 14026A   26197.87729405 -.00000098  00000+0  00000+0 0  9990
2 39741  56.4822 330.3620 0038148 325.7363  34.0173  2.00558776 89132
COSMOS 2500 [GLONASS-M] 
1 40001U 14032A   26197.13235105 -.00000063  00000+0  00000+0 0  9998
2 40001  65.2141 312.6974 0008313 190.7170 169.2811  2.13105751 94071
NAVSTAR 71 (USA 256)    
1 40105U 14045A   26197.47040321 -.00000025  00000+0  00000+0 0  9996
2 40105  55.3721  87.2982 0034436 118.3856 242.0173  2.00560343 86661
GSAT0201 (GALILEO 5)    
1 40128U 14050A   26196.98314951 -.00000037  00000+0  00000+0 0  9998
2 40128  48.8430 272.2541 1678709 180.5497 179.3011  1.85519415 78858
GSAT0202 (GALILEO 6)    
1 40129U 14050B   26197.77756752 -.00000044  00000+0  00000+0 0  9994
2 40129  48.8597 271.3072 1679996 181.2736 178.2966  1.85520382 81031
IRNSS-1C                
1 40269U 14061A   26196.83150177 -.00000176  00000+0  00000+0 0  9992
2 40269   6.5880  88.3869 0022069   5.5373 222.1370  1.00272233 42973
NAVSTAR 72 (USA 258)    
1 40294U 14068A   26196.84010089 -.00000072  00000+0  00000+0 0  9990
2 40294  57.0073  29.8518 0067414  72.3241 288.4563  2.00553234 85785
COSMOS 2501 [GLONASS-K] 
1 40315U 14075A   26195.04843601  .00000065  00000+0  00000+0 0  9998
2 40315  63.6185 189.4424 0022586 212.6579 147.2095  2.13101105 90428
NAVSTAR 73 (USA 260)    
1 40534U 15013A   26197.48021406  .00000040  00000+0  00000+0 0  9998
2 40534  53.1660 202.9660 0110409  40.3942 320.4327  2.00549572 82411
GSAT0203 (GALILEO 7)    
1 40544U 15017A   26197.54192283 -.00000103  00000+0  00000+0 0  9993
2 40544  56.7763 340.7964 0002681 255.3673 104.5898  1.70476220 69700
GSAT0204 (GALILEO 8)    
1 40545U 15017B   26197.79779682 -.00000103  00000+0  00000+0 0  9995
2 40545  56.7840 340.8081 0002829 234.6469 125.3139  1.70475714 32756
